NORAD_CAT_ID,OBJECT_NAME,OBJECT_TYPE,EPOCH,MEAN_MOTION,ECCENTRICITY,INCLINATION,RA_OF_ASC_NODE,ARG_OF_PERICENTER,MEAN_ANOMALY,BSTAR,MEAN_MOTION_DOT,MEAN_MOTION_DDOT,TLE_LINE0,TLE_LINE1,TLE_LINE2,SEMIMAJOR_AXIS,PERIOD,APOGEE,PERIGEE,DECAYED
50170.0,STARLINK-3245,PAYLOAD,2024-06-29 06:50:59,15.08843641,0.0001408,53.2161,145.2457,98.1993,261.9159,8.2409e-05,1.024e-05,0.0,0 STARLINK-3245,1 50170U 21125Q   24181.28541382  .00001024  00000-0  82409-4 0  9997,2 50170  53.2161 145.2457 0001408  98.1993 261.9159 15.08843641142755,6917.869,95.437,540.708,538.76,0.0
50170.0,STARLINK-3245,PAYLOAD,2024-06-29 14:47:56,15.08829806,0.0001517,53.2157,143.761,83.0164,277.1001,2.2771e-05,7.4e-07,0.0,0 STARLINK-3245,1 50170U 21125Q   24181.61662703  .00000074  00000-0  22771-4 0  9995,2 50170  53.2157 143.7610 0001517  83.0164 277.1001 15.08829806142806,6917.912,95.438,540.826,538.727,0.0
50170.0,STARLINK-3245,PAYLOAD,2024-06-29 21:09:29,15.0883165,0.0001574,53.2146,142.5733,81.0483,279.0687,-8.3335e-06,-4.21e-06,0.0,0 STARLINK-3245,1 50170U 21125Q   24181.88158902 -.00000421  00000-0 -83335-5 0  9997,2 50170  53.2146 142.5733 0001574  81.0483 279.0687 15.08831650143321,6917.906,95.438,540.86,538.682,0.0
50170.0,STARLINK-3245,PAYLOAD,2024-06-30 03:31:02,15.08825508,0.0001295,53.2141,141.3815,79.4372,280.6766,-5.3311e-05,-1.136e-05,0.0,0 STARLINK-3245,1 50170U 21125Q   24182.14655554 -.00001136  00000-0 -53311-4 0  9996,2 50170  53.2141 141.3815 0001295  79.4372 280.6766 15.08825508142883,6917.925,95.438,540.686,538.894,0.0
50170.0,STARLINK-3245,PAYLOAD,2024-06-30 14:38:43,15.0883752,0.0001371,53.2164,139.2987,87.5022,272.6127,6.0099e-05,6.69e-06,0.0,0 STARLINK-3245,1 50170U 21125Q   24182.61022603  .00000669  00000-0  60099-4 0  9990,2 50170  53.2164 139.2987 0001371  87.5022 272.6127 15.08837520143432,6917.888,95.438,540.701,538.805,0.0
50170.0,STARLINK-3245,PAYLOAD,2024-07-01 03:21:47,15.08854828,0.0001008,53.2141,136.9216,83.2911,276.8196,9.0432e-05,1.152e-05,0.0,0 STARLINK-3245,1 50170U 21125Q   24183.14013241  .00001152  00000-0  90432-4 0  9999,2 50170  53.2141 136.9216 0001008  83.2911 276.8196 15.08854828143031,6917.835,95.437,540.397,539.003,0.0
50170.0,STARLINK-3245,PAYLOAD,2024-07-01 06:32:33,15.0886277,0.0001227,53.2159,136.3254,91.4249,268.6883,0.00015998,2.261e-05,0.0,0 STARLINK-3245,1 50170U 21125Q   24183.27260474  .00002261  00000-0  15998-3 0  9990,2 50170  53.2159 136.3254 0001227  91.4249 268.6883 15.08862770143053,6917.811,95.436,540.525,538.827,0.0
50170.0,STARLINK-3245,PAYLOAD,2024-07-01 14:29:29,15.08846616,0.0001407,53.2169,134.8387,93.1605,266.9548,2.9695e-05,1.85e-06,0.0,0 STARLINK-3245,1 50170U 21125Q   24183.60381685  .00000185  00000-0  29695-4 0  9998,2 50170  53.2169 134.8387 0001407  93.1605 266.9548 15.08846616143587,6917.86,95.437,540.699,538.752,0.0
50170.0,STARLINK-3245,PAYLOAD,2024-07-02 03:12:35,15.08832607,0.0001411,53.2167,132.4602,92.8085,267.3069,0.00018589,2.671e-05,0.0,0 STARLINK-3245,1 50170U 21125Q   24184.13374495  .00002671  00000-0  18589-3 0  9999,2 50170  53.2167 132.4602 0001411  92.8085 267.3069 15.08832607143186,6917.903,95.438,540.744,538.792,0.0
50170.0,STARLINK-3245,PAYLOAD,2024-07-02 20:41:50,15.08844138,0.0001494,53.218,129.1866,98.5671,261.5491,-7.8578e-05,-1.538e-05,0.0,0 STARLINK-3245,1 50170U 21125Q   24184.86238480 -.00001538  00000-0 -78578-4 0  9990,2 50170  53.2180 129.1866 0001494  98.5671 261.5491 15.08844138143773,6917.868,95.437,540.766,538.699,0.0
50170.0,STARLINK-3245,PAYLOAD,2024-07-03 03:03:22,15.08846034,0.0001364,53.2169,127.9998,87.5496,272.5652,-4.011e-05,-9.26e-06,0.0,0 STARLINK-3245,1 50170U 21125Q   24185.12734221 -.00000926  00000-0 -40110-4 0  9995,2 50170  53.2169 127.9998 0001364  87.5496 272.5652 15.08846034143814,6917.862,95.437,540.671,538.783,0.0
50170.0,STARLINK-3245,PAYLOAD,2024-07-04 02:54:11,15.08818658,0.00014,53.2155,123.5396,105.0377,255.077,-0.00032062,-5.384e-05,0.0,0 STARLINK-3245,1 50170U 21125Q   24186.12096584 -.00005384  00000-0 -32062-3 0  9998,2 50170  53.2155 123.5396 0001400 105.0377 255.0770 15.08818658143489,6917.946,95.439,540.779,538.842,0.0
50170.0,STARLINK-3245,PAYLOAD,2024-07-04 12:26:29,15.08800715,0.0001054,53.2157,121.7556,102.6919,257.4191,0.0007013,0.00010879,0.0,0 STARLINK-3245,1 50170U 21125Q   24186.51839582  .00010879  00000-0  70130-3 0  9995,2 50170  53.2157 121.7556 0001054 102.6919 257.4191 15.08800715143544,6918.0,95.44,540.595,539.136,0.0
50170.0,STARLINK-3245,PAYLOAD,2024-07-04 18:48:02,15.08820818,8.49e-05,53.2152,120.5654,74.0268,286.0817,-4.4544e-05,-9.96e-06,0.0,0 STARLINK-3245,1 50170U 21125Q   24186.78335809 -.00000996  00000-0 -44544-4 0  9999,2 50170  53.2152 120.5654 0000849  74.0268 286.0817 15.08820818144062,6917.939,95.439,540.391,539.217,0.0
50170.0,STARLINK-3245,PAYLOAD,2024-07-05 04:20:19,15.0884517,0.0001147,53.2162,118.7803,75.5147,284.5972,0.00012532,1.707e-05,0.0,0 STARLINK-3245,1 50170U 21125Q   24187.18077945  .00001707  00000-0  12532-3 0  9998,2 50170  53.2162 118.7803 0001147  75.5147 284.5972 15.08845170143648,6917.865,95.437,540.523,538.936,0.0
50170.0,STARLINK-3245,PAYLOAD,2024-07-05 12:17:15,15.08835336,0.0001376,53.2157,117.294,85.3736,274.7414,4.5224e-05,4.32e-06,0.0,0 STARLINK-3245,1 50170U 21125Q   24187.51198876  .00000432  00000-0  45224-4 0  9991,2 50170  53.2157 117.2940 0001376  85.3736 274.7414 15.08835336143695,6917.895,95.438,540.712,538.808,0.0
50170.0,STARLINK-3245,PAYLOAD,2024-07-06 12:08:02,15.08840563,0.0001329,53.2158,112.8341,93.7155,266.3989,-9.1056e-05,-1.737e-05,0.0,0 STARLINK-3245,1 50170U 21125Q   24188.50558892 -.00001737  00000-0 -91056-4 0  9994,2 50170  53.2158 112.8341 0001329  93.7155 266.3989 15.08840563144321,6917.879,95.438,540.663,538.824,0.0
50170.0,STARLINK-3245,PAYLOAD,2024-07-06 18:29:35,15.08832145,0.0001427,53.2179,111.648,94.4036,265.7119,2.8044e-05,1.58e-06,0.0,0 STARLINK-3245,1 50170U 21125Q   24188.77055353  .00000158  00000-0  28044-4 0  9998,2 50170  53.2179 111.6480 0001427  94.4036 265.7119 15.08832145143885,6917.904,95.438,540.757,538.782,0.0
50170.0,STARLINK-3245,PAYLOAD,2024-07-07 04:01:54,15.08840098,0.00015,53.2186,109.8624,89.3665,270.7499,3.7253e-05,3.05e-06,0.0,0 STARLINK-3245,1 50170U 21125Q   24189.16799030  .00000305  00000-0  37253-4 0  9995,2 50170  53.2186 109.8624 0001500  89.3665 270.7499 15.08840098143945,6917.88,95.438,540.783,538.707,0.0
50170.0,STARLINK-3245,PAYLOAD,2024-07-08 11:49:36,15.08845744,0.0001315,53.217,103.9157,88.0652,272.0491,2.8192e-05,1.61e-06,0.0,0 STARLINK-3245,1 50170U 21125Q   24190.49278764  .00000161  00000-0  28192-4 0  9991,2 50170  53.2170 103.9157 0001315  88.0652 272.0491 15.08845744144143,6917.863,95.437,540.638,538.818,0.0
50170.0,STARLINK-3245,PAYLOAD,2024-07-09 00:32:42,15.08839406,0.0001335,53.2159,101.5358,89.9584,270.1561,0.0001253,1.707e-05,0.0,0 STARLINK-3245,1 50170U 21125Q   24191.02271042  .00001707  00000-0  12530-3 0  9998,2 50170  53.2159 101.5358 0001335  89.9584 270.1561 15.08839406144227,6917.882,95.438,540.671,538.824,0.0
50170.0,STARLINK-3245,PAYLOAD,2024-07-09 11:40:23,15.08845785,0.0001246,53.2167,99.4548,91.9152,268.1983,6.6688e-05,7.74e-06,0.0,0 STARLINK-3245,1 50170U 21125Q   24191.48638686  .00000774  00000-0  66688-4 0  9996,2 50170  53.2167  99.4548 0001246  91.9152 268.1983 15.08845785144779,6917.863,95.437,540.59,538.866,0.0
50170.0,STARLINK-3245,PAYLOAD,2024-07-09 22:48:06,15.0884248,0.0001501,53.2185,97.3741,93.1441,266.9723,3.0765e-05,2.02e-06,0.0,0 STARLINK-3245,1 50170U 21125Q   24191.95007080  .00000202  00000-0  30765-4 0  9999,2 50170  53.2185  97.3741 0001501  93.1441 266.9723 15.08842480144845,6917.873,95.437,540.776,538.699,0.0
50170.0,STARLINK-3245,PAYLOAD,2024-07-10 00:23:29,15.08844215,0.0001445,53.2162,97.075,94.2984,265.8173,4.972e-05,5.04e-06,0.0,0 STARLINK-3245,1 50170U 21125Q   24192.01630845  .00000504  00000-0  49720-4 0  9994,2 50170  53.2162  97.0750 0001445  94.2984 265.8173 15.08844215144854,6917.868,95.437,540.732,538.733,0.0
50170.0,STARLINK-3245,PAYLOAD,2024-07-10 21:03:30,15.08836795,0.000129,53.2181,93.2107,90.413,269.701,4.4252e-05,4.16e-06,0.0,0 STARLINK-3245,1 50170U 21125Q   24192.87743315  .00000416  00000-0  44252-4 0  9992,2 50170  53.2181  93.2107 0001290  90.4130 269.7010 15.08836795144507,6917.89,95.438,540.648,538.863,0.0
50170.0,STARLINK-3245,PAYLOAD,2024-07-10 22:38:53,15.08837335,0.0001294,53.2182,92.9134,90.5815,269.5326,4.6782e-05,4.57e-06,0.0,0 STARLINK-3245,1 50170U 21125Q   24192.94367274  .00000457  00000-0  46782-4 0  9991,2 50170  53.2182  92.9134 0001294  90.5815 269.5326 15.08837335144991,6917.889,95.438,540.649,538.858,0.0
50170.0,STARLINK-3245,PAYLOAD,2024-07-11 03:25:02,15.08843101,0.0001357,53.2175,92.0189,95.0294,265.0853,4.5913e-05,4.43e-06,0.0,0 STARLINK-3245,1 50170U 21125Q   24193.14238898  .00000443  00000-0  45913-4 0  9993,2 50170  53.2175  92.0189 0001357  95.0294 265.0853 15.08843101145024,6917.871,95.437,540.675,538.797,0.0
50170.0,STARLINK-3245,PAYLOAD,2024-07-12 09:37:21,15.08847657,0.0001291,53.2174,86.3684,81.246,278.8678,7.2661e-05,8.69e-06,0.0,0 STARLINK-3245,1 50170U 21125Q   24194.40094564  .00000869  00000-0  72661-4 0  9995,2 50170  53.2174  86.3684 0001291  81.2460 278.8678 15.08847657144732,6917.857,95.437,540.615,538.829,0.0
50170.0,STARLINK-3245,PAYLOAD,2024-07-12 20:45:04,15.08833796,0.0001385,53.2182,84.2888,84.6429,275.4721,5.1262e-06,-2.06e-06,0.0,0 STARLINK-3245,1 50170U 21125Q   24194.86463815 -.00000206  00000-0  51262-5 0  9995,2 50170  53.2182  84.2888 0001385  84.6429 275.4721 15.08833796144809,6917.899,95.438,540.722,538.806,0.0
50170.0,STARLINK-3245,PAYLOAD,2024-07-12 22:20:27,15.08835658,0.0001483,53.2186,83.9905,82.3325,277.7836,9.8302e-07,-2.72e-06,0.0,0 STARLINK-3245,1 50170U 21125Q   24194.93087664 -.00000272  00000-0  98302-6 0  9997,2 50170  53.2186  83.9905 0001483  82.3325 277.7836 15.08835658145293,6917.894,95.438,540.785,538.733,0.0
